[{"OBJECT_NAME":"STARLINK-31973","OBJECT_ID":"2024-106X","EPOCH":"2026-03-09T02:55:42.343104","MEAN_MOTION":15.27567779,"ECCENTRICITY":6.024e-5,"INCLINATION":43.0021,"RA_OF_ASC_NODE":335.9351,"ARG_OF_PERICENTER":246.2423,"MEAN_ANOMALY":113.8366,"EPHEMERIS_TYPE":0,"CLASSIFICATION_TYPE":"U","NORAD_CAT_ID":59943,"ELEMENT_SET_NO":999,"REV_AT_EPOCH":10043,"BSTAR":-3.5143524e-5,"MEAN_MOTION_DOT":-1.228e-5,"MEAN_MOTION_DDOT":0},{"OBJECT_NAME":"OBJECT BD","OBJECT_ID":"2025-313BD","EPOCH":"2026-03-09T15:06:44.992224","MEAN_MOTION":15.3000236,"ECCENTRICITY":0.00072867,"INCLINATION":97.397,"RA_OF_ASC_NODE":145.285,"ARG_OF_PERICENTER":333.4514,"MEAN_ANOMALY":26.6352,"EPHEMERIS_TYPE":0,"CLASSIFICATION_TYPE":"U","NORAD_CAT_ID":67299,"ELEMENT_SET_NO":999,"REV_AT_EPOCH":1083,"BSTAR":0.0027633805,"MEAN_MOTION_DOT":0.0008101,"MEAN_MOTION_DDOT":0}]
